[Satellite]
VERSION=1.1
NAME=SONATE
NICKNAME=SONATE
TLE1=1 44400U 19038Q   22342.44373194  .00007509  00000+0  38606-3 0  9997
TLE2=2 44400  97.6632 312.1485 0020579 252.3858 107.5127 15.16577180189289
STATUS=0
